IRIDIUM 159             
1 43578U 18061K   25148.43285212  .00000082  00000+0  22080-4 0  9995
2 43578  86.4002 217.4473 0002099  92.1313 268.0123 14.34218270358231
IRIDIUM 180             
1 43922U 19002A   25148.29281182  .00000019  00000+0 -10054-6 0  9991
2 43922  86.3977 154.4903 0002264  92.4005 267.7450 14.34217702333823
IRIDIUM 176             
1 43923U 19002B   25148.52973973  .00000378  00000+0  55993-4 0  9990
2 43923  86.6102 154.3864 0002679 105.0335 255.1179 14.72257061342653
IRIDIUM 168             
1 43924U 19002C   25148.42600638  .00000065  00000+0  16073-4 0  9994
2 43924  86.3979 154.5011 0002338  90.4036 269.7427 14.34217983333829
IRIDIUM 173             
1 43925U 19002D   25148.41332134 -.00000024  00000+0 -15782-4 0  9990
2 43925  86.3980 154.4111 0002238  94.9084 265.2367 14.34217287333802
IRIDIUM 169             
1 43926U 19002E   25148.40015197  .00000293  00000+0  89417-4 0  9999
2 43926  86.4260 185.9921 0003486 111.1447 249.0124 14.38613566334901
IRIDIUM 172             
1 43927U 19002F   25148.40697421  .00000102  00000+0  29421-4 0  9994
2 43927  86.3977 154.4206 0002036  92.9618 267.1810 14.34217470333811
IRIDIUM 175             
1 43928U 19002G   25148.59267844  .00000943  00000+0  14567-3 0  9994
2 43928  86.1487 107.9906 0003336  83.6824 276.4773 14.72239952342650
